0 FENGYUN 1C DEB
1 36685U 99025DZF 13284.21940452  .00004398  00000-0  87646-3 0  2157
2 36685 098.8691 069.4059 0158941 112.7052 249.1745 14.54819604312156
0 FENGYUN 1C DEB
1 36685U 99025DZF 13287.17678717  .00004427  00000-0  88348-3 0  2161
2 36685 098.8655 072.5371 0157972 103.5295 258.3954 14.54847221312585
0 FENGYUN 1C DEB
1 36685U 99025DZF 13290.20288553  .00004497  00000-0  89816-3 0  2173
2 36685 098.8631 075.7464 0157141 093.7443 268.1874 14.54876418313020
0 FENGYUN 1C DEB
1 36685U 99025DZF 13291.16571957  .00004585  00000-0  91689-3 0  2182
2 36685 098.8615 076.7654 0156275 090.7415 271.2396 14.54888330313162
